DMSP 5D-3 F16 (USA 172) 
1 28054U 03048A   26183.60414560  .00000008  00000+0  27869-4 0  9993
2 28054  98.9886 207.5341 0008193 101.9072  55.8393 14.14484372171664
METEOSAT-9 (MSG-2)      
1 28912U 05049B   26182.95036416  .00000128  00000+0  00000+0 0  9992
2 28912   9.3931  54.0485 0047169 309.1789 305.1071  1.00267469  7143
DMSP 5D-3 F17 (USA 191) 
1 29522U 06050A   26183.58474720  .00000036  00000+0  41177-4 0  9990
2 29522  98.7380 189.8398 0010489  18.6315 341.5241 14.14995020 14605
FENGYUN 3A              
1 32958U 08026A   26183.55369578  .00000084  00000+0  60218-4 0  9993
2 32958  98.6884 124.0996 0009887  84.3059 275.9245 14.19574309937583
GOES 14                 
1 35491U 09033A   26183.62787284 -.00000329  00000+0  00000+0 0  9994
2 35491   1.7275  82.8666 0002230  26.3426 170.2521  1.00105437  6748
DMSP 5D-3 F18 (USA 210) 
1 35951U 09057A   26183.62783643  .00000277  00000+0  16652-3 0  9991
2 35951  98.9045 164.3639 0010484 201.6708 158.4023 14.14905519861774
EWS-G2 (GOES 15)        
1 36411U 10008A   26183.65966087  .00000031  00000+0  00000+0 0  9993
2 36411   1.3177  82.6392 0005385  46.4265  92.5823  1.00268378 59798
COMS 1                  
1 36744U 10032A   26183.30008567 -.00000079  00000+0  00000+0 0  9994
2 36744   4.8416  75.1789 0011810  13.6965 312.7503  0.99168940 51235
FENGYUN 3B              
1 37214U 10059A   26183.59710235  .00000083  00000+0  66074-4 0  9991
2 37214  98.9609 229.6767 0022719 140.7230  12.6103 14.14844362809600
SUOMI NPP               
1 37849U 11061A   26183.56551814  .00000080  00000+0  59233-4 0  9998
2 37849  98.7955 124.3367 0000695 310.4610  49.6505 14.19520511760626
METEOSAT-10 (MSG-3)     
1 38552U 12035B   26183.29748566  .00000001  00000+0  00000+0 0  9990
2 38552   4.7052  60.9470 0001613  15.2569 311.3560  1.00269475 51007
METOP-B                 
1 38771U 12049A   26183.53485224  .00000133  00000+0  80863-4 0  9990
2 38771  98.6496 234.7273 0001315 328.7730  31.3370 14.21443615715447
INSAT-3D                
1 39216U 13038B   26183.46567731 -.00000330  00000+0  00000+0 0  9990
2 39216   1.9634  82.3615 0001066  13.6592 121.6225  1.00268930 47234
FENGYUN 3C              
1 39260U 13052A   26183.59196284  .00000093  00000+0  68571-4 0  9997
2 39260  98.4988 156.7600 0014310 343.9444  16.1275 14.15758564660744
METEOR-M 2              
1 40069U 14037A   26183.63138652  .00000222  00000+0  12074-3 0  9990
2 40069  98.5120 158.8233 0005945   4.4299 355.6931 14.21465976621519
HIMAWARI-8              
1 40267U 14060A   26183.62458160 -.00000265  00000+0  00000+0 0  9994
2 40267   0.0168   8.1221 0001051  99.1161 178.9511  1.00271951 42918
FENGYUN 2G              
1 40367U 14090A   26183.60228554 -.00000293  00000+0  00000+0 0  9999
2 40367   5.6761  72.6337 0003605 150.3436  14.0509  1.00266746 42154
METEOSAT-11 (MSG-4)     
1 40732U 15034A   26183.58442758  .00000071  00000+0  00000+0 0  9998
2 40732   3.2390  71.0141 0002238 349.0052  80.3207  1.00267904  7373
ELEKTRO-L 2             
1 41105U 15074A   26182.93811038 -.00000111  00000+0  00000+0 0  9992
2 41105   6.7296  70.3426 0000516 273.6365 259.1662  1.00271077 38657
SENTINEL-3A             
1 41335U 16011A   26183.57501438  .00000142  00000+0  76746-4 0  9998
2 41335  98.6244 250.7373 0001427  94.6328 265.5016 14.26737015540251
INSAT-3DR               
1 41752U 16054A   26183.45463634 -.00000066  00000+0  00000+0 0  9991
2 41752   0.1421  85.9447 0010093 186.2693 245.9301  1.00272241 35971
HIMAWARI-9              
1 41836U 16064A   26183.62458178 -.00000265  00000+0  00000+0 0  9992
2 41836   0.0307 267.4091 0001417 224.5774 154.2574  1.00268267 35364
GOES 16                 
1 41866U 16071A   26182.99153953 -.00000081  00000+0  00000+0 0  9991
2 41866   0.3760  85.5227 0000571  28.6398  58.1403  1.00272024 35255
FENGYUN 4A              
1 41882U 16077A   26183.60705222 -.00000347  00000+0  00000+0 0  9991
2 41882   2.3599  80.1199 0007919 157.9559  24.8415  1.00276099 35082
CYGFM05                 
1 41884U 16078A   26183.63181250  .00025116  00000+0  33165-3 0  9998
2 41884  34.9557 158.2652 0008067 285.0788  74.9044 15.57329564531169
CYGFM04                 
1 41885U 16078B   26183.23405423  .00034998  00000+0  38060-3 0  9993
2 41885  34.9318 127.8224 0006683 317.2673  42.7533 15.62360416531359
CYGFM02                 
1 41886U 16078C   26183.52412733  .00037113  00000+0  35590-3 0  9995
2 41886  34.9400 119.9613 0007471 322.8744  37.1466 15.65519305531576
CYGFM01                 
1 41887U 16078D   26183.29330424  .00026285  00000+0  33816-3 0  9993
2 41887  34.9386 161.4426 0007960 277.4394  82.5426 15.58015289531061
CYGFM08                 
1 41888U 16078E   26183.29040917  .00031616  00000+0  36529-3 0  9997
2 41888  34.9423 140.6357 0008714 306.3717  53.6204 15.60797506531330
CYGFM07                 
1 41890U 16078G   26183.24860684  .00031773  00000+0  36586-3 0  9993
2 41890  34.9439 129.2429 0007032 318.0003  42.0183 15.60901001531350
CYGFM03                 
1 41891U 16078H   26183.53947380  .00027905  00000+0  32150-3 0  9990
2 41891  34.9396 129.2367 0006961 308.1900  51.8198 15.60905587531379
