OBJECT_NAME,OBJECT_ID,EPOCH,MEAN_MOTION,ECCENTRICITY,INCLINATION,RA_OF_ASC_NODE,ARG_OF_PERICENTER,MEAN_ANOMALY,EPHEMERIS_TYPE,CLASSIFICATION_TYPE,NORAD_CAT_ID,ELEMENT_SET_NO,REV_AT_EPOCH,BSTAR,MEAN_MOTION_DOT,MEAN_MOTION_DDOT
DMSP 5D-3 F16 (USA 172),2003-048A,2026-07-02T14:29:58.179840,14.14484372,.00081932,98.9886,207.5341,101.9072,55.8393,0,U,28054,999,17166,.27869262E-4,.8E-7,0
METEOSAT-9 (MSG-2),2005-049B,2026-07-01T22:48:31.463424,1.00267469,.00471692,9.3931,54.0485,309.1789,305.1071,0,U,28912,999,714,0,.128E-5,0
DMSP 5D-3 F17 (USA 191),2006-050A,2026-07-02T14:02:02.158080,14.14995020,.00104899,98.7380,189.8398,18.6315,341.5241,0,U,29522,999,1460,.41177253E-4,.36E-6,0
FENGYUN 3A,2008-026A,2026-07-02T13:17:19.315392,14.19574309,.00098873,98.6884,124.0996,84.3059,275.9245,0,U,32958,999,93758,.60218283E-4,.84E-6,0
GOES 14,2009-033A,2026-07-02T15:04:08.213376,1.00105437,.00022301,1.7275,82.8666,26.3426,170.2521,0,U,35491,999,674,0,-.329E-5,0
DMSP 5D-3 F18 (USA 210),2009-057A,2026-07-02T15:04:05.067552,14.14905519,.00104844,98.9045,164.3639,201.6708,158.4023,0,U,35951,999,86177,.16652015E-3,.277E-5,0
EWS-G2 (GOES 15),2010-008A,2026-07-02T15:49:54.699168,1.00268378,.00053855,1.3177,82.6392,46.4265,92.5823,0,U,36411,999,5979,0,.31E-6,0
COMS 1,2010-032A,2026-07-02T07:12:07.401888,0.99168940,.00118101,4.8416,75.1789,13.6965,312.7503,0,U,36744,999,5123,0,-.79E-6,0
FENGYUN 3B,2010-059A,2026-07-02T14:19:49.643040,14.14844362,.00227197,98.9609,229.6767,140.7230,12.6103,0,U,37214,999,80960,.66074425E-4,.83E-6,0
SUOMI NPP,2011-061A,2026-07-02T13:34:20.767296,14.19520511,.00006955,98.7955,124.3367,310.4610,49.6505,0,U,37849,999,76062,.59233235E-4,.8E-6,0
METEOSAT-10 (MSG-3),2012-035B,2026-07-02T07:08:22.761024,1.00269475,.00016131,4.7052,60.9470,15.2569,311.3560,0,U,38552,999,5100,0,.1E-7,0
METOP-B,2012-049A,2026-07-02T12:50:11.233536,14.21443615,.00013153,98.6496,234.7273,328.7730,31.3370,0,U,38771,999,71544,.80863336E-4,.133E-5,0
INSAT-3D,2013-038B,2026-07-02T11:10:34.519584,1.00268930,.00010666,1.9634,82.3615,13.6592,121.6225,0,U,39216,999,4723,0,-.33E-5,0
FENGYUN 3C,2013-052A,2026-07-02T14:12:25.589376,14.15758564,.00143109,98.4988,156.7600,343.9444,16.1275,0,U,39260,999,66074,.68570665E-4,.93E-6,0
METEOR-M 2,2014-037A,2026-07-02T15:09:11.795328,14.21465976,.00059454,98.5120,158.8233,4.4299,355.6931,0,U,40069,999,62151,.12074077E-3,.222E-5,0
HIMAWARI-8,2014-060A,2026-07-02T14:59:23.850240,1.00271951,.00010513,0.0168,8.1221,99.1161,178.9511,0,U,40267,999,4291,0,-.265E-5,0
FENGYUN 2G,2014-090A,2026-07-02T14:27:17.470656,1.00266746,.00036057,5.6761,72.6337,150.3436,14.0509,0,U,40367,999,4215,0,-.293E-5,0
METEOSAT-11 (MSG-4),2015-034A,2026-07-02T14:01:34.542912,1.00267904,.00022387,3.2390,71.0141,349.0052,80.3207,0,U,40732,999,737,0,.71E-6,0
ELEKTRO-L 2,2015-074A,2026-07-01T22:30:52.736832,1.00271077,.00005169,6.7296,70.3426,273.6365,259.1662,0,U,41105,999,3865,0,-.111E-5,0
SENTINEL-3A,2016-011A,2026-07-02T13:48:01.242432,14.26737015,.00014271,98.6244,250.7373,94.6328,265.5016,0,U,41335,999,54025,.76746227E-4,.142E-5,0
INSAT-3DR,2016-054A,2026-07-02T10:54:40.579776,1.00272241,.00100939,0.1421,85.9447,186.2693,245.9301,0,U,41752,999,3597,0,-.66E-6,0
HIMAWARI-9,2016-064A,2026-07-02T14:59:23.865792,1.00268267,.00014174,0.0307,267.4091,224.5774,154.2574,0,U,41836,999,3536,0,-.265E-5,0
GOES 16,2016-071A,2026-07-01T23:47:49.015392,1.00272024,.00005719,0.3760,85.5227,28.6398,58.1403,0,U,41866,999,3525,0,-.81E-6,0
FENGYUN 4A,2016-077A,2026-07-02T14:34:09.311808,1.00276099,.00079195,2.3599,80.1199,157.9559,24.8415,0,U,41882,999,3508,0,-.347E-5,0
CYGFM05,2016-078A,2026-07-02T15:09:48.600000,15.57329564,.00080676,34.9557,158.2652,285.0788,74.9044,0,U,41884,999,53116,.33164595E-3,.25116E-3,0
CYGFM04,2016-078B,2026-07-02T05:37:02.285472,15.62360416,.00066836,34.9318,127.8224,317.2673,42.7533,0,U,41885,999,53135,.38059765E-3,.34998E-3,0
CYGFM02,2016-078C,2026-07-02T12:34:44.601312,15.65519305,.00074715,34.9400,119.9613,322.8744,37.1466,0,U,41886,999,53157,.35589586E-3,.37113E-3,0
CYGFM01,2016-078D,2026-07-02T07:02:21.486336,15.58015289,.00079607,34.9386,161.4426,277.4394,82.5426,0,U,41887,999,53106,.33815746E-3,.26285E-3,0
CYGFM08,2016-078E,2026-07-02T06:58:11.352288,15.60797506,.00087146,34.9423,140.6357,306.3717,53.6204,0,U,41888,999,53133,.36528766E-3,.31616E-3,0
CYGFM07,2016-078G,2026-07-02T05:57:59.630976,15.60901001,.00070325,34.9439,129.2429,318.0003,42.0183,0,U,41890,999,53135,.36585897E-3,.31773E-3,0
CYGFM03,2016-078H,2026-07-02T12:56:50.536320,15.60905587,.00069612,34.9396,129.2367,308.1900,51.8198,0,U,41891,999,53137,.32149512E-3,.27905E-3,0
